{
  "links" : {
    "next" : "https://api.nasa.gov/neo/rest/v1/feed?start_date=2007-01-23&end_date=2007-01-23&detailed=true&api_key=t0TVs3DtDT2H8Oy2Zy8m2eVrNsAVKAexjcZXUckd",
    "prev" : "https://api.nasa.gov/neo/rest/v1/feed?start_date=2007-01-21&end_date=2007-01-21&detailed=true&api_key=t0TVs3DtDT2H8Oy2Zy8m2eVrNsAVKAexjcZXUckd",
    "self" : "https://api.nasa.gov/neo/rest/v1/feed?start_date=2007-01-22&end_date=2007-01-22&detailed=true&api_key=t0TVs3DtDT2H8Oy2Zy8m2eVrNsAVKAexjcZXUckd"
  },
  "element_count" : 4,
  "near_earth_objects" : {
    "2007-01-22" : [ {
      "links" : {
        "self" : "https://api.nasa.gov/neo/rest/v1/neo/2003103?api_key=t0TVs3DtDT2H8Oy2Zy8m2eVrNsAVKAexjcZXUckd"
      },
      "neo_reference_id" : "2003103",
      "name" : "3103 Eger (1982 BB)",
      "nasa_jpl_url" : "http://ssd.jpl.nasa.gov/sbdb.cgi?sstr=2003103",
      "absolute_magnitude_h" : 15.38,
      "estimated_diameter" : {
        "kilometers" : {
          "estimated_diameter_min" : 2.2312846442,
          "estimated_diameter_max" : 4.9893041415
        },
        "meters" : {
          "estimated_diameter_min" : 2231.2846441686,
          "estimated_diameter_max" : 4989.3041415123
        },
        "miles" : {
          "estimated_diameter_min" : 1.3864555706,
          "estimated_diameter_max" : 3.1002089037
        },
        "feet" : {
          "estimated_diameter_min" : 7320.487911974,
          "estimated_diameter_max" : 16369.1085996393
        }
      },
      "is_potentially_hazardous_asteroid" : false,
      "close_approach_data" : [ {
        "close_approach_date" : "2007-01-22",
        "epoch_date_close_approach" : 1169452800000,
        "relative_velocity" : {
          "kilometers_per_second" : "11.7761065153",
          "kilometers_per_hour" : "42393.9834551012",
          "miles_per_hour" : "26341.9726640878"
        },
        "miss_distance" : {
          "astronomical" : "0.4660920035",
          "lunar" : "181.3097839355",
          "kilometers" : "69726368",
          "miles" : "43325956"
        },
        "orbiting_body" : "Earth"
      } ],
      "orbital_data" : {
        "orbit_id" : "453",
        "orbit_determination_date" : "2017-06-27 06:18:07",
        "orbit_uncertainty" : "0",
        "minimum_orbit_intersection" : ".0792517",
        "jupiter_tisserand_invariant" : "4.613",
        "epoch_osculation" : "2458000.5",
        "eccentricity" : ".3542670774921781",
        "semi_major_axis" : "1.404245528802982",
        "inclination" : "20.92828007723452",
        "ascending_node_longitude" : "129.7752818915037",
        "orbital_period" : "607.8032268956443",
        "perihelion_distance" : ".9067675692324911",
        "perihelion_argument" : "254.0512717226443",
        "aphelion_distance" : "1.901723488373472",
        "perihelion_time" : "2458263.942950629890",
        "mean_anomaly" : "203.9635427551889",
        "mean_motion" : ".5922969541288887",
        "equinox" : "J2000"
      }
    }, {
      "links" : {
        "self" : "https://api.nasa.gov/neo/rest/v1/neo/2025143?api_key=t0TVs3DtDT2H8Oy2Zy8m2eVrNsAVKAexjcZXUckd"
      },
      "neo_reference_id" : "2025143",
      "name" : "25143 Itokawa (1998 SF36)",
      "nasa_jpl_url" : "http://ssd.jpl.nasa.gov/sbdb.cgi?sstr=2025143",
      "absolute_magnitude_h" : 19.2,
      "estimated_diameter" : {
        "kilometers" : {
          "estimated_diameter_min" : 0.3841978911,
          "estimated_diameter_max" : 0.8590926012
        },
        "meters" : {
          "estimated_diameter_min" : 384.1978910643,
          "estimated_diameter_max" : 859.0926012318
        },
        "miles" : {
          "estimated_diameter_min" : 0.2387294278,
          "estimated_diameter_max" : 0.5338152287
        },
        "feet" : {
          "estimated_diameter_min" : 1260.4918089193,
          "estimated_diameter_max" : 2818.5453698252
        }
      },
      "is_potentially_hazardous_asteroid" : true,
      "close_approach_data" : [ {
        "close_approach_date" : "2007-01-22",
        "epoch_date_close_approach" : 1169452800000,
        "relative_velocity" : {
          "kilometers_per_second" : "6.9589083502",
          "kilometers_per_hour" : "25052.0700608998",
          "miles_per_hour" : "15566.3820886741"
        },
        "miss_distance" : {
          "astronomical" : "0.4591491465",
          "lunar" : "178.6090240479",
          "kilometers" : "68687736",
          "miles" : "42680580"
        },
        "orbiting_body" : "Earth"
      } ],
      "orbital_data" : {
        "orbit_id" : "185",
        "orbit_determination_date" : "2017-04-06 09:47:52",
        "orbit_uncertainty" : "0",
        "minimum_orbit_intersection" : ".0129128",
        "jupiter_tisserand_invariant" : "4.898",
        "epoch_osculation" : "2458000.5",
        "eccentricity" : ".2801684689189635",
        "semi_major_axis" : "1.324113442889941",
        "inclination" : "1.6214504243261",
        "ascending_node_longitude" : "69.08002450397387",
        "orbital_period" : "556.5269742104316",
        "perihelion_distance" : ".9531386069204489",
        "perihelion_argument" : "162.8112344275751",
        "aphelion_distance" : "1.695088278859433",
        "perihelion_time" : "2458153.866895667210",
        "mean_anomaly" : "260.7917225961466",
        "mean_motion" : ".646868915043601",
        "equinox" : "J2000"
      }
    }, {
      "links" : {
        "self" : "https://api.nasa.gov/neo/rest/v1/neo/3029651?api_key=t0TVs3DtDT2H8Oy2Zy8m2eVrNsAVKAexjcZXUckd"
      },
      "neo_reference_id" : "3029651",
      "name" : "(2000 AG205)",
      "nasa_jpl_url" : "http://ssd.jpl.nasa.gov/sbdb.cgi?sstr=3029651",
      "absolute_magnitude_h" : 19.7,
      "estimated_diameter" : {
        "kilometers" : {
          "estimated_diameter_min" : 0.3051792326,
          "estimated_diameter_max" : 0.6824015094
        },
        "meters" : {
          "estimated_diameter_min" : 305.1792325939,
          "estimated_diameter_max" : 682.4015094011
        },
        "miles" : {
          "estimated_diameter_min" : 0.1896295249,
          "estimated_diameter_max" : 0.4240245083
        },
        "feet" : {
          "estimated_diameter_min" : 1001.2442334633,
          "estimated_diameter_max" : 2238.8501681036
        }
      },
      "is_potentially_hazardous_asteroid" : false,
      "close_approach_data" : [ {
        "close_approach_date" : "2007-01-22",
        "epoch_date_close_approach" : 1169452800000,
        "relative_velocity" : {
          "kilometers_per_second" : "9.5423220247",
          "kilometers_per_hour" : "34352.3592887614",
          "miles_per_hour" : "21345.2201369529"
        },
        "miss_distance" : {
          "astronomical" : "0.3200446101",
          "lunar" : "124.4973526001",
          "kilometers" : "47877992",
          "miles" : "29750006"
        },
        "orbiting_body" : "Earth"
      } ],
      "orbital_data" : {
        "orbit_id" : "28",
        "orbit_determination_date" : "2017-04-06 09:17:10",
        "orbit_uncertainty" : "0",
        "minimum_orbit_intersection" : ".265163",
        "jupiter_tisserand_invariant" : "3.346",
        "epoch_osculation" : "2458000.5",
        "eccentricity" : ".5218369647003612",
        "semi_major_axis" : "2.290616580877761",
        "inclination" : "18.4123809678543",
        "ascending_node_longitude" : "269.8934784758638",
        "orbital_period" : "1266.272067640992",
        "perihelion_distance" : "1.095288177020191",
        "perihelion_argument" : "249.0709912802234",
        "aphelion_distance" : "3.485944984735331",
        "perihelion_time" : "2457967.911811040859",
        "mean_anomaly" : "9.264792555320595",
        "mean_motion" : ".2842990927460509",
        "equinox" : "J2000"
      }
    }, {
      "links" : {
        "self" : "https://api.nasa.gov/neo/rest/v1/neo/3736814?api_key=t0TVs3DtDT2H8Oy2Zy8m2eVrNsAVKAexjcZXUckd"
      },
      "neo_reference_id" : "3736814",
      "name" : "(2015 XY378)",
      "nasa_jpl_url" : "http://ssd.jpl.nasa.gov/sbdb.cgi?sstr=3736814",
      "absolute_magnitude_h" : 19.7,
      "estimated_diameter" : {
        "kilometers" : {
          "estimated_diameter_min" : 0.3051792326,
          "estimated_diameter_max" : 0.6824015094
        },
        "meters" : {
          "estimated_diameter_min" : 305.1792325939,
          "estimated_diameter_max" : 682.4015094011
        },
        "miles" : {
          "estimated_diameter_min" : 0.1896295249,
          "estimated_diameter_max" : 0.4240245083
        },
        "feet" : {
          "estimated_diameter_min" : 1001.2442334633,
          "estimated_diameter_max" : 2238.8501681036
        }
      },
      "is_potentially_hazardous_asteroid" : false,
      "close_approach_data" : [ {
        "close_approach_date" : "2007-01-22",
        "epoch_date_close_approach" : 1169452800000,
        "relative_velocity" : {
          "kilometers_per_second" : "11.8974768927",
          "kilometers_per_hour" : "42830.9168135677",
          "miles_per_hour" : "26613.466061186"
        },
        "miss_distance" : {
          "astronomical" : "0.2169960131",
          "lunar" : "84.4114532471",
          "kilometers" : "32462142",
          "miles" : "20171040"
        },
        "orbiting_body" : "Earth"
      } ],
      "orbital_data" : {
        "orbit_id" : "16",
        "orbit_determination_date" : "2017-04-06 06:20:26",
        "orbit_uncertainty" : "3",
        "minimum_orbit_intersection" : ".196366",
        "jupiter_tisserand_invariant" : "7.953",
        "epoch_osculation" : "2458000.5",
        "eccentricity" : ".4892223993032462",
        "semi_major_axis" : ".7101457438702746",
        "inclination" : "13.9119185147867",
        "ascending_node_longitude" : "1.28268129341028",
        "orbital_period" : "218.5846495430084",
        "perihelion_distance" : ".3627265391990703",
        "perihelion_argument" : "265.6137599851955",
        "aphelion_distance" : "1.057564948541479",
        "perihelion_time" : "2457904.121862842732",
        "mean_anomaly" : "158.7308598712446",
        "mean_motion" : "1.646959202087825",
        "equinox" : "J2000"
      }
    } ]
  }
}